HULIANWANG DIGUI-145    
1 67443U 26007J   26069.11936298 -.00000059  00000+0  12980-3 0  9998
2 67443  50.0078  80.9138 0000950 330.3755  29.7067 13.36587384  7618
GUOWANG GROUP 20 OBJECT*
1 68129U 26047A   26074.28756131 -.00000138  00000+0  88090-5 0  9999
2 68129  50.0054  47.6545 0009113 271.8148  88.1713 14.05944153   350
GUOWANG GROUP 20 OBJECT*
1 68130U 26047B   26074.28735975 -.00000138  00000+0  89479-5 0  9996
2 68130  50.0043  47.6551 0007756 266.8374  93.1644 14.06063632   346
