[{"OBJECT_NAME":"HULIANWANG DIGUI-145","OBJECT_ID":"2026-007J","EPOCH":"2026-03-10T02:51:52.961472","MEAN_MOTION":13.36587384,"ECCENTRICITY":9.506e-5,"INCLINATION":50.0078,"RA_OF_ASC_NODE":80.9138,"ARG_OF_PERICENTER":330.3755,"MEAN_ANOMALY":29.7067,"EPHEMERIS_TYPE":0,"CLASSIFICATION_TYPE":"U","NORAD_CAT_ID":67443,"ELEMENT_SET_NO":999,"REV_AT_EPOCH":761,"BSTAR":0.00012980376,"MEAN_MOTION_DOT":-5.9e-7,"MEAN_MOTION_DDOT":0},{"OBJECT_NAME":"GUOWANG GROUP 20 OBJECT A","OBJECT_ID":"2026-047A","EPOCH":"2026-03-15T06:54:05.297184","MEAN_MOTION":14.05944153,"ECCENTRICITY":0.00091133,"INCLINATION":50.0054,"RA_OF_ASC_NODE":47.6545,"ARG_OF_PERICENTER":271.8148,"MEAN_ANOMALY":88.1713,"EPHEMERIS_TYPE":0,"CLASSIFICATION_TYPE":"U","NORAD_CAT_ID":68129,"ELEMENT_SET_NO":999,"REV_AT_EPOCH":35,"BSTAR":8.809042e-6,"MEAN_MOTION_DOT":-1.38e-6,"MEAN_MOTION_DDOT":0},{"OBJECT_NAME":"GUOWANG GROUP 20 OBJECT B","OBJECT_ID":"2026-047B","EPOCH":"2026-03-15T06:53:47.882400","MEAN_MOTION":14.06063632,"ECCENTRICITY":0.00077564,"INCLINATION":50.0043,"RA_OF_ASC_NODE":47.6551,"ARG_OF_PERICENTER":266.8374,"MEAN_ANOMALY":93.1644,"EPHEMERIS_TYPE":0,"CLASSIFICATION_TYPE":"U","NORAD_CAT_ID":68130,"ELEMENT_SET_NO":999,"REV_AT_EPOCH":34,"BSTAR":8.947852e-6,"MEAN_MOTION_DOT":-1.38e-6,"MEAN_MOTION_DDOT":0}]
